NORAD_CAT_ID,OBJECT_NAME,OBJECT_TYPE,EPOCH,MEAN_MOTION,ECCENTRICITY,INCLINATION,RA_OF_ASC_NODE,ARG_OF_PERICENTER,MEAN_ANOMALY,BSTAR,MEAN_MOTION_DOT,MEAN_MOTION_DDOT,TLE_LINE0,TLE_LINE1,TLE_LINE2,SEMIMAJOR_AXIS,PERIOD,APOGEE,PERIGEE,DECAYED
53007.0,STARLINK-4215,PAYLOAD,2024-05-12 11:25:46,15.08654643,0.0001351,53.2146,204.8708,106.0,254.1141,-0.0012005,-0.00019246,0.0,0 STARLINK-4215,1 53007U 22076X   24133.47623361 -.00019246  00000-0 -12005-2 0  9991,2 53007  53.2146 204.8708 0001351 106.0000 254.1141 15.08654643102748,6918.447,95.449,541.247,539.377,0.0
53007.0,STARLINK-4215,PAYLOAD,2024-05-12 14:36:34,15.08636573,0.0001383,53.2164,204.2765,103.5361,256.5785,0.00070313,0.00010858,0.0,0 STARLINK-4215,1 53007U 22076X   24133.60873620  .00010858  00000-0  70313-3 0  9996,2 53007  53.2164 204.2765 0001383 103.5361 256.5785 15.08636573102294,6918.502,95.45,541.324,539.41,0.0
53007.0,STARLINK-4215,PAYLOAD,2024-05-13 04:55:06,15.08749442,0.0001541,53.216,201.6006,79.3855,280.7311,0.0025487,0.00040407,0.0,0 STARLINK-4215,1 53007U 22076X   24134.20493611  .00040407  00000-0  25487-2 0  9995,2 53007  53.2160 201.6006 0001541  79.3855 280.7311 15.08749442102859,6918.157,95.443,541.088,538.956,0.0
53007.0,STARLINK-4215,PAYLOAD,2024-05-13 14:27:24,15.08889126,0.0001363,53.2164,199.8172,88.3761,271.7388,0.0022175,0.00035228,0.0,0 STARLINK-4215,1 53007U 22076X   24134.60236455  .00035228  00000-0  22175-2 0  9996,2 53007  53.2164 199.8172 0001363  88.3761 271.7388 15.08889126102446,6917.73,95.434,540.538,538.652,0.0
53007.0,STARLINK-4215,PAYLOAD,2024-05-13 20:48:56,15.08888786,0.0001363,53.2162,198.6272,83.4495,276.6652,0.0012046,0.00018961,0.0,0 STARLINK-4215,1 53007U 22076X   24134.86731682  .00018961  00000-0  12046-2 0  9997,2 53007  53.2162 198.6272 0001363  83.4495 276.6652 15.08888786102485,6917.731,95.434,540.539,538.653,0.0
53007.0,STARLINK-4215,PAYLOAD,2024-05-14 04:45:50,15.08897255,0.0001341,53.216,197.1401,85.3433,274.7713,0.00090815,0.00014217,0.0,0 STARLINK-4215,1 53007U 22076X   24135.19850472  .00014217  00000-0  90815-3 0  9994,2 53007  53.2160 197.1401 0001341  85.3433 274.7713 15.08897255103007,6917.705,95.434,540.498,538.643,0.0
53007.0,STARLINK-4215,PAYLOAD,2024-05-14 11:07:22,15.08906004,0.0001338,53.2162,195.9507,84.9069,275.2076,0.00091637,0.00014352,0.0,0 STARLINK-4215,1 53007U 22076X   24135.46345327  .00014352  00000-0  91637-3 0  9995,2 53007  53.2162 195.9507 0001338  84.9069 275.2076 15.08906004102570,6917.679,95.433,540.469,538.618,0.0
53007.0,STARLINK-4215,PAYLOAD,2024-05-14 20:39:39,15.08928689,0.0001374,53.2162,194.1651,77.0264,283.0882,0.0013084,0.00020647,0.0,0 STARLINK-4215,1 53007U 22076X   24135.86087186  .00020647  00000-0  13084-2 0  9998,2 53007  53.2162 194.1651 0001374  77.0264 283.0882 15.08928689102633,6917.609,95.432,540.425,538.524,0.0
53007.0,STARLINK-4215,PAYLOAD,2024-05-15 10:58:05,15.08911287,0.0001279,53.2161,191.4901,92.1558,267.9581,0.00059395,9.196e-05,0.0,0 STARLINK-4215,1 53007U 22076X   24136.45700930  .00009196  00000-0  59395-3 0  9995,2 53007  53.2161 191.4901 0001279  92.1558 267.9581 15.08911287103193,6917.663,95.433,540.412,538.643,0.0
53007.0,STARLINK-4215,PAYLOAD,2024-05-15 20:30:23,15.08906547,0.0001236,53.2157,189.706,97.3569,262.7563,0.00073512,0.00011452,0.0,0 STARLINK-4215,1 53007U 22076X   24136.85443504  .00011452  00000-0  73512-3 0  9995,2 53007  53.2157 189.7060 0001236  97.3569 262.7563 15.08906547103259,6917.677,95.433,540.397,538.687,0.0
53007.0,STARLINK-4215,PAYLOAD,2024-05-16 12:24:14,15.08874113,0.0001668,53.2164,186.7315,103.9702,256.1475,0.00044989,6.886e-05,0.0,0 STARLINK-4215,1 53007U 22076X   24137.51682921  .00006886  00000-0  44989-3 0  9998,2 53007  53.2164 186.7315 0001668 103.9702 256.1475 15.08874113103352,6917.776,95.435,540.795,538.487,0.0
53007.0,STARLINK-4215,PAYLOAD,2024-05-16 20:21:09,15.0888457,0.00014,53.2151,185.2418,75.6628,284.452,0.0010827,0.00017006,0.0,0 STARLINK-4215,1 53007U 22076X   24137.84802230  .00017006  00000-0  10827-2 0  9990,2 53007  53.2151 185.2418 0001400  75.6628 284.4520 15.08884570102938,6917.744,95.435,540.578,538.641,0.0
53007.0,STARLINK-4215,PAYLOAD,2024-05-17 12:15:01,15.08819609,0.0001341,53.2153,182.2715,95.2985,264.8161,-0.00039531,-6.57e-05,0.0,0 STARLINK-4215,1 53007U 22076X   24138.51043909 -.00006570  00000-0 -39531-3 0  9995,2 53007  53.2153 182.2715 0001341  95.2985 264.8161 15.08819609103503,6917.943,95.439,540.735,538.88,0.0
53007.0,STARLINK-4215,PAYLOAD,2024-05-17 20:11:58,15.0882052,0.000132,53.2159,180.7855,97.164,262.9503,0.00076067,0.00011832,0.0,0 STARLINK-4215,1 53007U 22076X   24138.84164622  .00011832  00000-0  76067-3 0  9997,2 53007  53.2159 180.7855 0001320  97.1640 262.9503 15.08820520103089,6917.94,95.439,540.718,538.892,0.0
53007.0,STARLINK-4215,PAYLOAD,2024-05-18 02:33:30,15.0883608,0.0001339,53.2157,179.5944,88.5645,271.5501,0.0014676,0.00023143,0.0,0 STARLINK-4215,1 53007U 22076X   24139.10660807  .00023143  00000-0  14676-2 0  9998,2 53007  53.2157 179.5944 0001339  88.5645 271.5501 15.08836080103599,6917.892,95.438,540.684,538.831,0.0
53007.0,STARLINK-4215,PAYLOAD,2024-05-18 08:55:03,15.08861998,0.0001381,53.2154,178.4056,86.6156,273.4994,0.0020043,0.00031774,0.0,0 STARLINK-4215,1 53007U 22076X   24139.37156480  .00031774  00000-0  20043-2 0  9998,2 53007  53.2154 178.4056 0001381  86.6156 273.4994 15.08861998103639,6917.813,95.436,540.634,538.723,0.0
53007.0,STARLINK-4215,PAYLOAD,2024-05-18 20:02:44,15.08878162,0.0001358,53.2154,176.3237,86.1519,273.9628,0.0013777,0.00021729,0.0,0 STARLINK-4215,1 53007U 22076X   24139.83523569  .00021729  00000-0  13777-2 0  9990,2 53007  53.2154 176.3237 0001358  86.1519 273.9628 15.08878162103707,6917.764,95.435,540.568,538.689,0.0
53007.0,STARLINK-4215,PAYLOAD,2024-05-19 08:45:50,15.08824745,0.0001378,53.2158,173.9452,102.8602,257.2544,0.0011477,0.00018017,0.0,0 STARLINK-4215,1 53007U 22076X   24140.36516348  .00018017  00000-0  11477-2 0  9998,2 53007  53.2158 173.9452 0001378 102.8602 257.2544 15.08824745103311,6917.927,95.439,540.745,538.839,0.0
53007.0,STARLINK-4215,PAYLOAD,2024-05-20 11:47:23,15.08860106,0.0001468,53.2159,168.8893,106.4999,253.6155,0.0010388,0.00016292,0.0,0 STARLINK-4215,1 53007U 22076X   24141.49124132  .00016292  00000-0  10388-2 0  9992,2 53007  53.2159 168.8893 0001468 106.4999 253.6155 15.08860106103952,6917.819,95.436,540.699,538.668,0.0
53007.0,STARLINK-4215,PAYLOAD,2024-05-21 05:16:37,15.08850894,0.0001629,53.2159,165.6161,114.4579,245.6583,0.00026248,3.893e-05,0.0,0 STARLINK-4215,1 53007U 22076X   24142.21987817  .00003893  00000-0  26248-3 0  9996,2 53007  53.2159 165.6161 0001629 114.4579 245.6583 15.08850894104069,6917.847,95.437,540.839,538.585,0.0
53007.0,STARLINK-4215,PAYLOAD,2024-05-21 08:27:23,15.08846892,0.0001389,53.2152,165.0217,105.827,254.2875,0.00014204,1.974e-05,0.0,0 STARLINK-4215,1 53007U 22076X   24142.35235898  .00001974  00000-0  14204-3 0  9993,2 53007  53.2152 165.0217 0001389 105.8270 254.2875 15.08846892103616,6917.859,95.437,540.685,538.763,0.0
53007.0,STARLINK-4215,PAYLOAD,2024-05-22 05:07:24,15.08843197,0.0001427,53.2152,161.1561,107.0201,253.0948,-6.7354e-06,-3.95e-06,0.0,0 STARLINK-4215,1 53007U 22076X   24143.21347766 -.00000395  00000-0 -67354-5 0  9991,2 53007  53.2152 161.1561 0001427 107.0201 253.0948 15.08843197104216,6917.871,95.437,540.723,538.748,0.0
53007.0,STARLINK-4215,PAYLOAD,2024-05-22 08:18:10,15.08842806,0.0001386,53.2154,160.5617,104.5101,255.6045,-1.8965e-05,-5.9e-06,0.0,0 STARLINK-4215,1 53007U 22076X   24143.34595802 -.00000590  00000-0 -18965-4 0  9991,2 53007  53.2154 160.5617 0001386 104.5101 255.6045 15.08842806103769,6917.872,95.437,540.696,538.778,0.0
53007.0,STARLINK-4215,PAYLOAD,2024-05-23 09:44:21,15.0883983,0.0001298,53.2166,155.8054,97.5113,262.6026,8.7793e-05,1.11e-05,0.0,0 STARLINK-4215,1 53007U 22076X   24144.40580070  .00001110  00000-0  87793-4 0  9992,2 53007  53.2166 155.8054 0001298  97.5113 262.6026 15.08839830104390,6917.881,95.438,540.644,538.848,0.0
53007.0,STARLINK-4215,PAYLOAD,2024-05-24 07:59:44,15.08843695,0.0001309,53.2166,151.6416,93.2019,266.9123,0.00011013,1.465e-05,0.0,0 STARLINK-4215,1 53007U 22076X   24145.33315719  .00001465  00000-0  11013-3 0  9995,2 53007  53.2166 151.6416 0001309  93.2019 266.9123 15.08843695104060,6917.869,95.437,540.64,538.829,0.0
53007.0,STARLINK-4215,PAYLOAD,2024-05-25 06:15:09,15.08834044,0.0001263,53.2174,147.4783,97.194,262.9196,2.3331e-05,8.3e-07,0.0,0 STARLINK-4215,1 53007U 22076X   24146.26052472  .00000083  00000-0  23331-4 0  9994,2 53007  53.2174 147.4783 0001263  97.1940 262.9196 15.08834044104675,6917.899,95.438,540.637,538.89,0.0
53007.0,STARLINK-4215,PAYLOAD,2024-05-25 07:50:32,15.08836755,0.0001288,53.2176,147.1815,95.4288,264.6851,4.8515e-05,4.84e-06,0.0,0 STARLINK-4215,1 53007U 22076X   24146.32676272  .00000484  00000-0  48515-4 0  9997,2 53007  53.2176 147.1815 0001288  95.4288 264.6851 15.08836755104211,6917.89,95.438,540.646,538.864,0.0
53007.0,STARLINK-4215,PAYLOAD,2024-05-26 04:30:35,15.0881624,0.0001428,53.2175,143.3184,75.5422,284.5729,-0.00013568,-2.445e-05,0.0,0 STARLINK-4215,1 53007U 22076X   24147.18790665 -.00002445  00000-0 -13568-3 0  9995,2 53007  53.2175 143.3184 0001428  75.5422 284.5729 15.08816240104810,6917.953,95.439,540.806,538.83,0.0
53007.0,STARLINK-4215,PAYLOAD,2024-05-26 06:05:57,15.08826546,0.0001418,53.2178,143.0141,92.7587,267.3567,-6.2425e-05,-1.281e-05,0.0,0 STARLINK-4215,1 53007U 22076X   24147.25413828 -.00001281  00000-0 -62425-4 0  9990,2 53007  53.2178 143.0141 0001418  92.7587 267.3567 15.08826546104825,6917.922,95.438,540.767,538.806,0.0
53007.0,STARLINK-4215,PAYLOAD,2024-05-26 17:13:38,15.08787197,0.0001555,53.2168,140.94,68.53,291.5858,0.00034328,5.172e-05,0.0,0 STARLINK-4215,1 53007U 22076X   24147.71781198  .00005172  00000-0  34328-3 0  9990,2 53007  53.2168 140.9400 0001555  68.5300 291.5858 15.08787197104420,6918.042,95.441,540.983,538.831,0.0
